$$SOE
2460154.500000000, A.D. 2023-Jul-29 00:00:00.0000, -4.474256111099705E+08, 3.277036927492185E+08, -8.391750664479211E+06,
2460161.500000000, A.D. 2023-Aug-05 00:00:00.0000, -4.526771136698709E+08, 3.195560696182277E+08, -7.829389315127984E+06,
2460168.500000000, A.D. 2023-Aug-12 00:00:00.0000, -4.577995357828457E+08, 3.113172693510171E+08, -7.264792632928133E+06,
2460175.500000000, A.D. 2023-Aug-19 00:00:00.0000, -4.627910718424780E+08, 3.029894044037487E+08, -6.698116062978759E+06,
2460182.500000000, A.D. 2023-Aug-26 00:00:00.0000, -4.676499530757880E+08, 2.945746296616086E+08, -6.129516632016212E+06,
2460189.500000000, A.D. 2023-Sep-02 00:00:00.0000, -4.723744488121564E+08, 2.860751417706689E+08, -5.559152882208496E+06,
2460196.500000000, A.D. 2023-Sep-09 00:00:00.0000, -4.769628677258841E+08, 2.774931783137584E+08, -4.987184814165294E+06,
2460203.500000000, A.D. 2023-Sep-16 00:00:00.0000, -4.814135588821400E+08, 2.688310167724105E+08, -4.413773859338254E+06,
2460210.500000000, A.D. 2023-Sep-23 00:00:00.0000, -4.857249121679885E+08, 2.600909735617521E+08, -3.839082896534398E+06,
2460217.500000000, A.D. 2023-Sep-30 00:00:00.0000, -4.898953584462946E+08, 2.512754043290808E+08, -3.263276184044808E+06,
2460224.500000000, A.D. 2023-Oct-07 00:00:00.0000, -4.939233717851001E+08, 2.423867049736791E+08, -2.686519035854205E+06,
2460231.500000000, A.D. 2023-Oct-14 00:00:00.0000, -4.978074727212404E+08, 2.334273100758796E+08, -2.108977608026132E+06,
2460238.500000000, A.D. 2023-Oct-21 00:00:00.0000, -5.015462293267897E+08, 2.243996903387427E+08, -1.530818960197121E+06,
2460245.500000000, A.D. 2023-Oct-28 00:00:00.0000, -5.051382575004519E+08, 2.153063513021755E+08, -9.522110766050369E+05,
2460252.500000000, A.D. 2023-Nov-04 00:00:00.0000, -5.085822217330026E+08, 2.061498325595724E+08, -3.733227948574722E+05,
2460259.500000000, A.D. 2023-Nov-11 00:00:00.0000, -5.118768361680736E+08, 1.969327068782839E+08, 2.056762923717052E+05,
2460266.500000000, A.D. 2023-Nov-18 00:00:00.0000, -5.150208657371918E+08, 1.876575791607589E+08, 7.846159374957383E+05,
2460273.500000000, A.D. 2023-Nov-25 00:00:00.0000, -5.180131272946019E+08, 1.783270852700277E+08, 1.363325335326269E+06,
2460280.500000000, A.D. 2023-Dec-02 00:00:00.0000, -5.208524907220535E+08, 1.689438907095629E+08, 1.941633214132123E+06,
2460287.500000000, A.D. 2023-Dec-09 00:00:00.0000, -5.235378799239374E+08, 1.595106891000103E+08, 2.519367908521570E+06,
2460294.500000000, A.D. 2023-Dec-16 00:00:00.0000, -5.260682734231055E+08, 1.500302004667789E+08, 3.096357388772212E+06,
2460301.500000000, A.D. 2023-Dec-23 00:00:00.0000, -5.284427042064648E+08, 1.405051700271098E+08, 3.672429270731375E+06,
2460308.500000000, A.D. 2023-Dec-30 00:00:00.0000, -5.306602601583506E+08, 1.309383685265506E+08, 4.247411014770024E+06,
2460315.500000000, A.D. 2024-Jan-06 00:00:00.0000, -5.327200868531358E+08, 1.213325917648357E+08, 4.821130283111259E+06,
2460322.500000000, A.D. 2024-Jan-13 00:00:00.0000, -5.346213895336834E+08, 1.116906575058313E+08, 5.393415016500130E+06,
2460329.500000000, A.D. 2024-Jan-20 00:00:00.0000, -5.363634330504987E+08, 1.020154028576336E+08, 5.964093369760744E+06,
2460336.500000000, A.D. 2024-Jan-27 00:00:00.0000, -5.379455417894112E+08, 9.230968277610819E+07, 6.532993745229397E+06,
2460343.500000000, A.D. 2024-Feb-03 00:00:00.0000, -5.393671000162253E+08, 8.257636874508691E+07, 7.099944885393050E+06,
2460350.500000000, A.D. 2024-Feb-10 00:00:00.0000, -5.406275523606246E+08, 7.281834734457017E+07, 7.664775975141488E+06,
2460357.500000000, A.D. 2024-Feb-17 00:00:00.0000, -5.417264042996174E+08, 6.303851871726865E+07, 8.227316741289284E+06,
2460364.500000000, A.D. 2024-Feb-24 00:00:00.0000, -5.426632226033510E+08, 5.323979495044946E+07, 8.787397547047362E+06,
2460371.500000000, A.D. 2024-Mar-02 00:00:00.0000, -5.434376357127191E+08, 4.342509834261987E+07, 9.344849475889370E+06,
2460378.500000000, A.D. 2024-Mar-09 00:00:00.0000, -5.440493339087943E+08, 3.359735949421283E+07, 9.899504386751043E+06,
2460385.500000000, A.D. 2024-Mar-16 00:00:00.0000, -5.444980688776057E+08, 2.375951542154599E+07, 1.045119492025381E+07,
2460392.500000000, A.D. 2024-Mar-23 00:00:00.0000, -5.447836527726331E+08, 1.391450880494072E+07, 1.099975455591381E+07,
2460399.500000000, A.D. 2024-Mar-30 00:00:00.0000, -5.449059590154064E+08, 4.065288345718013E+06, 1.154501792351966E+07,
2460406.500000000, A.D. 2024-Apr-06 00:00:00.0000, -5.448649245785345E+08, -5.785193133853115E+06, 1.208682106979783E+07,
2460413.500000000, A.D. 2024-Apr-13 00:00:00.0000, -5.446605502001680E+08, -1.563398200874203E+07, 1.262500142291819E+07,
2460420.500000000, A.D. 2024-Apr-20 00:00:00.0000, -5.442928994810516E+08, -2.547812590858241E+07, 1.315939776087767E+07,
2460427.500000000, A.D. 2024-Apr-27 00:00:00.0000, -5.437620983808155E+08, -3.531467507419535E+07, 1.368985027692973E+07,
2460434.500000000, A.D. 2024-May-04 00:00:00.0000, -5.430683350263076E+08, -4.514068371477249E+07, 1.421620067642104E+07,
2460441.500000000, A.D. 2024-May-11 00:00:00.0000, -5.422118595944288E+08, -5.495321146507877E+07, 1.473829227484280E+07,
2460448.500000000, A.D. 2024-May-18 00:00:00.0000, -5.411929841879872E+08, -6.474932491839315E+07, 1.525597009139755E+07,
2460455.500000000, A.D. 2024-May-25 00:00:00.0000, -5.400120826801907E+08, -7.452609923969327E+07, 1.576908093532339E+07,
2460462.500000000, A.D. 2024-Jun-01 00:00:00.0000, -5.386695904682962E+08, -8.428061991399647E+07, 1.627747347491464E+07,
2460469.500000000, A.D. 2024-Jun-08 00:00:00.0000, -5.371660038904819E+08, -9.400998465037549E+07, 1.678099826491687E+07,
2460476.500000000, A.D. 2024-Jun-15 00:00:00.0000, -5.355018789068286E+08, -1.037113048942022E+08, 1.727950774036552E+07,
2460483.500000000, A.D. 2024-Jun-22 00:00:00.0000, -5.336778300499570E+08, -1.133817057703336E+08, 1.777285636526333E+07,
2460490.500000000, A.D. 2024-Jun-29 00:00:00.0000, -5.316945317677959E+08, -1.230183262764041E+08, 1.826090098201425E+07,
2460497.500000000, A.D. 2024-Jul-06 00:00:00.0000, -5.295527195153146E+08, -1.326183221956105E+08, 1.874350091719264E+07,
2460504.500000000, A.D. 2024-Jul-13 00:00:00.0000, -5.272531886473505E+08, -1.421788689024715E+08, 1.922051789580169E+07,
2460511.500000000, A.D. 2024-Jul-20 00:00:00.0000, -5.247967930985762E+08, -1.516971629106839E+08, 1.969181604007377E+07,
2460518.500000000, A.D. 2024-Jul-27 00:00:00.0000, -5.221844445074108E+08, -1.611704231210822E+08, 2.015726193447114E+07,
2460525.500000000, A.D. 2024-Aug-03 00:00:00.0000, -5.194171115125797E+08, -1.705958921431903E+08, 2.061672470105523E+07,
2460532.500000000, A.D. 2024-Aug-10 00:00:00.0000, -5.164958190583319E+08, -1.799708376928471E+08, 2.107007606947517E+07,
2460539.500000000, A.D. 2024-Aug-17 00:00:00.0000, -5.134216476623837E+08, -1.892925540418304E+08, 2.151719043879690E+07,
2460546.500000000, A.D. 2024-Aug-24 00:00:00.0000, -5.101957326196815E+08, -1.985583635393517E+08, 2.195794492652732E+07,
2460553.500000000, A.D. 2024-Aug-31 00:00:00.0000, -5.068192630270088E+08, -2.077656182648452E+08, 2.239221938888466E+07,
2460560.500000000, A.D. 2024-Sep-07 00:00:00.0000, -5.032934802636454E+08, -2.169117016841314E+08, 2.281989638877545E+07,
2460567.500000000, A.D. 2024-Sep-14 00:00:00.0000, -4.996196758438639E+08, -2.259940293119986E+08, 2.324086118471559E+07,
2460574.500000000, A.D. 2024-Sep-21 00:00:00.0000, -4.957991906715700E+08, -2.350100479679426E+08, 2.365500196019582E+07,
2460581.500000000, A.D. 2024-Sep-28 00:00:00.0000, -4.918334161870099E+08, -2.439572368524342E+08, 2.406221007419820E+07,
2460588.500000000, A.D. 2024-Oct-05 00:00:00.0000, -4.877237937391101E+08, -2.528331104413291E+08, 2.446237999632657E+07,
2460595.500000000, A.D. 2024-Oct-12 00:00:00.0000, -4.834718125465330E+08, -2.616352202166026E+08, 2.485540920317253E+07,
2460602.500000000, A.D. 2024-Oct-19 00:00:00.0000, -4.790790079996899E+08, -2.703611555025189E+08, 2.524119817434265E+07,
2460609.500000000, A.D. 2024-Oct-26 00:00:00.0000, -4.745469603372934E+08, -2.790085442075846E+08, 2.561965042555572E+07,
2460616.500000000, A.D. 2024-Nov-02 00:00:00.0000, -4.698772934416798E+08, -2.875750536199691E+08, 2.599067254305892E+07,
2460623.500000000, A.D. 2024-Nov-09 00:00:00.0000, -4.650716736580604E+08, -2.960583912349698E+08, 2.635417421223566E+07,
2460630.500000000, A.D. 2024-Nov-16 00:00:00.0000, -4.601318086135150E+08, -3.044563056134583E+08, 2.671006823813161E+07,
2460637.500000000, A.D. 2024-Nov-23 00:00:00.0000, -4.550594459904168E+08, -3.127665873204823E+08, 2.705827054961123E+07,
2460644.500000000, A.D. 2024-Nov-30 00:00:00.0000, -4.498563720476145E+08, -3.209870699860430E+08, 2.739870016466694E+07,
2460651.500000000, A.D. 2024-Dec-07 00:00:00.0000, -4.445244094715075E+08, -3.291156310668810E+08, 2.773127911291349E+07,
2460658.500000000, A.D. 2024-Dec-14 00:00:00.0000, -4.390654152471073E+08, -3.371501910847883E+08, 2.805593247859129E+07,
2460665.500000000, A.D. 2024-Dec-21 00:00:00.0000, -4.334812808688647E+08, -3.450887125820097E+08, 2.837258867546438E+07,
2460672.500000000, A.D. 2024-Dec-28 00:00:00.0000, -4.277739329205942E+08, -3.529292017615816E+08, 2.868117953038241E+07,
2460679.500000000, A.D. 2025-Jan-04 00:00:00.0000, -4.219453314296285E+08, -3.606697104368085E+08, 2.898164013179745E+07,
2460686.500000000, A.D. 2025-Jan-11 00:00:00.0000, -4.159974678182753E+08, -3.683083366297479E+08, 2.927390874626218E+07,
2460693.500000000, A.D. 2025-Jan-18 00:00:00.0000, -4.099323633706662E+08, -3.758432247372867E+08, 2.955792681220387E+07,
2460700.500000000, A.D. 2025-Jan-25 00:00:00.0000, -4.037520679726326E+08, -3.832725657396494E+08, 2.983363895011203E+07,
2460707.500000000, A.D. 2025-Feb-01 00:00:00.0000, -3.974586589364887E+08, -3.905945974821288E+08, 3.010099296958438E+07,
2460714.500000000, A.D. 2025-Feb-08 00:00:00.0000, -3.910542398539250E+08, -3.978076050110993E+08, 3.035993986979358E+07,
2460721.500000000, A.D. 2025-Feb-15 00:00:00.0000, -3.845409394498324E+08, -4.049099209849847E+08, 3.061043382939354E+07,
$$EOE